[{"OBJECT_NAME":"VSP RF B1","OBJECT_ID":"2024-043AR","EPOCH":"2026-03-09T22:40:29.479296","MEAN_MOTION":15.26694159,"ECCENTRICITY":0.00102608,"INCLINATION":97.5446,"RA_OF_ASC_NODE":204.7052,"ARG_OF_PERICENTER":220.7435,"MEAN_ANOMALY":139.3037,"EPHEMERIS_TYPE":0,"CLASSIFICATION_TYPE":"U","NORAD_CAT_ID":59137,"ELEMENT_SET_NO":999,"REV_AT_EPOCH":11187,"BSTAR":0.00024406819,"MEAN_MOTION_DOT":6.341e-5,"MEAN_MOTION_DDOT":0},{"OBJECT_NAME":"STARLINK-31791","OBJECT_ID":"2024-082G","EPOCH":"2026-03-09T05:24:39.890880","MEAN_MOTION":15.27551311,"ECCENTRICITY":3.667e-5,"INCLINATION":42.9988,"RA_OF_ASC_NODE":142.1953,"ARG_OF_PERICENTER":200.7339,"MEAN_ANOMALY":159.3497,"EPHEMERIS_TYPE":0,"CLASSIFICATION_TYPE":"U","NORAD_CAT_ID":59637,"ELEMENT_SET_NO":999,"REV_AT_EPOCH":10474,"BSTAR":0.00011811975,"MEAN_MOTION_DOT":2.987e-5,"MEAN_MOTION_DDOT":0}]
